satname,norad_id,inclination_deg,eccentricity,mean_motion_rev_per_day,perigee_km,apogee_km,l1,l2
STARLINK-1152,45096,53.0422,0.0006191,15.29033548,474.45503091085266,482.9451666065361,1 45096U 20006BE  25356.90129781  .00049540  00000+0  17339-2 0  9996,2 45096  53.0422 206.0797 0006191  78.4571 281.7123 15.29033548325804
STARLINK-1184,45098,53.0534,0.0001962,15.06976152,544.0878906162179,546.8047047022192,1 45098U 20006BG  25357.67765755  .00012270  00000+0  82827-3 0  9995,2 45098  53.0534 227.8192 0001962 117.3641 242.7548 15.06976152325565
STARLINK-1193,45100,53.054,0.000144,15.06403143,546.204676307485,548.1991739179166,1 45100U 20006BJ  25357.67692265  .00001538  00000+0  12213-3 0  9991,2 45100  53.0540 227.8520 0001440  92.1343 267.9811 15.06403143325568
STARLINK-1143,45179,53.0525,4.83e-05,15.47906127,422.5238679282493,423.1808435000121,1 45179U 20012B   25357.65520330  .00117794  00000+0  21992-2 0  9990,2 45179  53.0525 337.4521 0000483  57.2027 302.9026 15.47906127324093
STARLINK-1202,45183,53.0557,0.0001232,15.06409528,546.3291567998021,548.0355554891557,1 45183U 20012F   25356.81072053  .00002960  00000+0  21747-3 0  9993,2 45183  53.0557  31.7444 0001232  89.0583 271.0547 15.06409528323253
STARLINK-1216,45185,53.0567,0.0001359,15.06405862,546.2524393833946,548.1347442382485,1 45185U 20012H   25357.79854418  .00000149  00000+0  28909-4 0  9991,2 45185  53.0567  27.3061 0001359  90.7590 269.3555 15.06405862323345
STARLINK-1225,45187,53.0562,0.0001298,15.06411185,546.2783719430718,548.0761835295716,1 45187U 20012K   25357.08716020  .00002552  00000+0  19010-3 0  9993,2 45187  53.0562  30.4995 0001298  90.9263 269.1875 15.06411185323285
STARLINK-1230,45189,53.0556,0.0001086,15.06407713,546.4358285188346,547.9400090911986,1 45189U 20012M   25357.82065189 -.00001549  00000+0 -85086-4 0  9994,2 45189  53.0556  27.2125 0001086  65.3251 294.7851 15.06407713320622
STARLINK-1234,45190,53.0512,0.0010719,15.45383485,422.95359874195947,437.5494220305245,1 45190U 20012N   25357.91668980  .00137565  00000+0  27879-2 0  9994,2 45190  53.0512 330.9556 0010719  42.0934 182.9687 15.45383485  5820
STARLINK-1269,45197,53.0538,0.000137,15.06429941,546.1710344246048,548.0685547863277,1 45197U 20012V   25357.49997939  .00008370  00000+0  57964-3 0  9993,2 45197  53.0538  28.6470 0001370  87.4454 272.6692 15.06429941323320
STARLINK-1154,45198,53.054,0.0001583,15.10325689,534.1115728346458,536.3003372142066,1 45198U 20012W   25357.91668980  .00082124  00000+0  49138-2 0  9994,2 45198  53.0540   6.7244 0001583 105.0931  72.9416 15.10325689  5784
STARLINK-1199,45201,53.0564,0.0001597,15.06401401,546.1012865994135,548.3132415573591,1 45201U 20012Z   25357.76722148  .00000622  00000+0  60629-4 0  9992,2 45201  53.0564   7.4491 0001597  86.8651 273.2521 15.06401401323673
STARLINK-1209,45206,53.0521,0.0010837,15.38119741,444.2682115007965,459.07113448384007,1 45206U 20012AE  25357.76930338  .00096677  00000+0  25122-2 0  9991,2 45206  53.0521 334.7247 0010837  40.1690 320.0112 15.38119741323180
STARLINK-1210,45207,53.0216,0.0004528,15.71847306,350.569391682292,356.6656685847811,1 45207U 20012AF  25357.91668980  .00167549  00000+0  12433-2 0  9998,2 45207  53.0216 284.6290 0004528 146.5724  99.3802 15.71847306  6016
STARLINK-1231,45212,53.0517,0.0001028,15.1568738,518.1835072400017,519.6015365096991,1 45212U 20012AL  25357.71130193  .00035900  00000+0  18701-2 0  9991,2 45212  53.0517   3.1766 0001028 182.5016 177.5972 15.15687380323688
STARLINK-1271,45217,53.0557,0.0001248,15.06410272,546.315796345536,548.0443554876856,1 45217U 20012AR  25357.22169509  .00002053  00000+0  15660-3 0  9990,2 45217  53.0557   9.8966 0001248  93.9758 266.1374 15.06410272323599
STARLINK-1191,45222,53.056,0.0001601,15.06400605,546.1009556937715,548.3184517082973,1 45222U 20012AW  25357.69534263  .00000448  00000+0  49003-4 0  9995,2 45222  53.0560 347.7685 0001601  81.9060 278.2111 15.06400605323948
STARLINK-1212,45223,53.0567,0.0001307,15.06401997,546.3002951710869,548.1105796842303,1 45223U 20012AX  25357.71385437  .00003237  00000+0  23607-3 0  9996,2 45223  53.0567 348.3439 0001307  85.4374 274.6764 15.06401997323949
STARLINK-1215,45225,53.0562,0.0001397,15.06408549,546.2178890752548,548.1528241416918,1 45225U 20012AZ  25357.20510665  .00001557  00000+0  12340-3 0  9990,2 45225  53.0562 349.9710 0001397  90.2303 269.8846 15.06408549323824
STARLINK-1221,45227,53.0679,0.0005613,15.38867559,445.62451990723,453.2891767613701,1 45227U 20012BB  25357.15637193  .00015660  00000+0  41045-3 0  9996,2 45227  53.0679 271.4314 0005613 114.5041 245.6548 15.38867559324915
STARLINK-1222,45228,53.0767,0.0001423,15.41798202,439.8318638578439,441.7725339538538,1 45228U 20012BC  25357.91668980  .00054408  00000+0  12660-2 0  9992,2 45228  53.0767 344.1726 0001423  85.9640 254.3182 15.41798202  5582
STARLINK-1226,45229,53.0577,0.0001603,15.06412369,546.0635216970968,548.2837762911631,1 45229U 20012BD  25357.20142073  .00001956  00000+0  15010-3 0  9998,2 45229  53.0577 349.9883 0001603  86.1203 273.9969 15.06412369323768
STARLINK-1227,45230,53.0566,0.000143,15.06414747,546.1760424953454,548.1566792565563,1 45230U 20012BE  25357.19773401  .00003148  00000+0  23003-3 0  9999,2 45230  53.0566 350.0040 0001430  89.5893 270.5260 15.06414747323888
STARLINK-1246,45235,53.0576,0.0001527,15.06392811,546.176087186208,548.2910953647834,1 45235U 20012BK  25357.41153774 -.00000711  00000+0 -28819-4 0  9990,2 45235  53.0576  29.0453 0001527  97.2534 262.8629 15.06392811323363
STARLINK-1270,45237,53.0543,0.0001079,15.25822204,487.57673160215563,489.05851250959586,1 45237U 20012BM  25357.91668980  .01952898  00000+0  68144-1 0  9990,2 45237  53.0543 346.1000 0001079 107.5949  82.0842 15.25822204  5784
STARLINK-1279,45360,53.0483,0.0003567,15.42952126,434.97089616011726,439.8331016819466,1 45360U 20019A   25357.78679758  .00090058  00000+0  20005-2 0  9999,2 45360  53.0483 102.7306 0003567 231.6557 128.4128 15.42952126318906
STARLINK-1301,45361,53.0487,0.0004044,15.46351965,424.65632251844363,430.1606477068026,1 45361U 20019B   25357.78403579  .00098063  00000+0  19379-2 0  9992,2 45361  53.0487 111.4146 0004044 225.6293 134.4382 15.46351965318795
STARLINK-1306,45362,53.036,0.000364,15.94966065,285.9823206278943,290.8355660746547,1 45362U 20019C   25357.91668980  .00327411  53260-4  83145-3 0  9993,2 45362  53.0360  85.5059 0003640   9.6015 173.9752 15.94966065  6051
STARLINK-1262,45366,53.0544,0.0001263,15.06402056,546.3305858745543,548.0799273285729,1 45366U 20019G   25357.72482181  .00001261  00000+0  10354-3 0  9996,2 45366  53.0544 147.6336 0001263  91.7445 268.3688 15.06402056318281
STARLINK-1273,45367,53.0549,0.0001253,15.06404602,546.3297090999704,548.0651979140202,1 45367U 20019H   25357.68059976  .00001562  00000+0  12373-3 0  9991,2 45367  53.0549 147.8332 0001253  97.2185 262.8946 15.06404602318270
STARLINK-1276,45368,53.0534,0.0001218,15.06416011,546.318985486404,548.0059884414286,1 45368U 20019J   25357.71745951  .00001818  00000+0  14086-3 0  9998,2 45368  53.0534 147.6710 0001218  88.7546 271.3583 15.06416011318280
STARLINK-1277,45369,53.0545,0.000139,15.06400659,546.2469150301176,548.1721613677364,1 45369U 20019K   25356.84765624  .00000217  00000+0  33447-4 0  9996,2 45369  53.0545 152.2008 0001390  89.1673 270.9475 15.06400659318143
STARLINK-1281,45370,53.055,0.0001486,15.0644512,546.044188841428,548.1023613351836,1 45370U 20019L   25356.71119125 -.00010016  00000+0 -65362-3 0  9993,2 45370  53.0550 152.1890 0001486 103.2567 256.8588 15.06445120318134
STARLINK-1300,45374,53.0537,0.0001357,15.0640283,546.2631157871383,548.1426530317658,1 45374U 20019Q   25357.72851927  .00000911  00000+0  80007-4 0  9997,2 45374  53.0537 147.6190 0001357  93.3318 266.7826 15.06402830318287
STARLINK-1302,45375,53.0555,0.0001326,15.06400487,546.2917643329547,548.1283663746863,1 45375U 20019R   25357.80961142  .00000434  00000+0  48019-4 0  9995,2 45375  53.0555 147.2571 0001326  93.5257 266.5883 15.06400487318295
STARLINK-1304,45376,53.0543,0.0001311,15.06419188,546.244844619845,548.0606555923232,1 45376U 20019S   25357.82802177  .00002540  00000+0  18927-3 0  9994,2 45376  53.0543 147.1710 0001311  89.5548 270.5592 15.06419188318299
STARLINK-1305,45377,53.0496,0.0005887,15.39204671,444.44108822988164,452.4787234268042,1 45377U 20019T   25357.91668980  .00086560  00000+0  21778-2 0  9998,2 45377  53.0496 133.7024 0005887 182.9367  13.0559 15.39204671  5869
STARLINK-1319,45379,53.0507,0.0004787,15.44231346,430.376750101228,436.89834305212116,1 45379U 20019V   25357.91668980  .00052959  00000+0  11357-2 0  9997,2 45379  53.0507 134.2935 0004787 202.4249  81.6010 15.44231346  5831
STARLINK-1266,45383,53.0543,0.000122,15.06408585,546.3403569606589,548.0301355887486,1 45383U 20019Z   25356.65405430  .00001196  00000+0  99166-4 0  9994,2 45383  53.0543 132.4467 0001220  89.4605 270.6524 15.06408585318391
STARLINK-1267,45384,53.0539,0.0001281,15.27629338,482.0224652801444,483.78026330907596,1 45384U 20019AA  25357.91668980  .02027204  00000+0  66739-1 0  9993,2 45384  53.0539 126.5690 0001281  92.0735  86.0197 15.27629338  5639
STARLINK-1272,45386,53.0504,0.0004857,15.42593255,435.1481881206919,441.76982948364366,1 45386U 20019AC  25357.78086929  .00094835  00000+0  21300-2 0  9995,2 45386  53.0504 113.3805 0004857 221.1193 138.9446 15.42593255318760
STARLINK-1274,45387,53.0322,0.0001626,15.36189444,456.27834239531876,458.50125571037006,1 45387U 20019AD  25357.74758632  .00088823  00000+0  24641-2 0  9990,2 45387  53.0322 102.9898 0001626  17.9750 342.1308 15.36189444318902
STARLINK-1280,45388,53.0499,0.0005597,15.48252295,418.0326329109039,425.6445255743074,1 45388U 20019AE  25357.91668980  .00099712  00000+0  18440-2 0  9995,2 45388  53.0499 129.9747 0005597 180.3490 219.6736 15.48252295  5844
